line1,line2,validFromUtcTime
1 00000U 00000E   26001.00000000  .00000000  00000-0  27772-4 0    01,2 00000  88.8960 135.3350 0010120 269.8171 337.5812 13.55288321    06,2026-01-01T00:00:00Z
1 00000U 00000E   26002.00000000  .00000000  00000-0  27772-4 0    02,2 00000  88.8960 135.2227 0010120 266.9071 176.6176 13.55288359    01,2026-01-02T00:00:00Z
